[{"OBJECT_NAME":"STARLINK-31473","OBJECT_ID":"2024-057V","EPOCH":"2026-03-09T07:36:30.420864","MEAN_MOTION":15.27568004,"ECCENTRICITY":0.00016783,"INCLINATION":43.0022,"RA_OF_ASC_NODE":189.0471,"ARG_OF_PERICENTER":284.5895,"MEAN_ANOMALY":75.4771,"EPHEMERIS_TYPE":0,"CLASSIFICATION_TYPE":"U","NORAD_CAT_ID":59339,"ELEMENT_SET_NO":999,"REV_AT_EPOCH":10978,"BSTAR":-5.3932856e-5,"MEAN_MOTION_DOT":-1.745e-5,"MEAN_MOTION_DDOT":0},{"OBJECT_NAME":"HERMES-2","OBJECT_ID":"2025-052AK","EPOCH":"2026-03-09T22:17:00.130272","MEAN_MOTION":15.28021069,"ECCENTRICITY":0.00063399,"INCLINATION":97.4004,"RA_OF_ASC_NODE":324.4926,"ARG_OF_PERICENTER":99.416,"MEAN_ANOMALY":260.7796,"EPHEMERIS_TYPE":0,"CLASSIFICATION_TYPE":"U","NORAD_CAT_ID":63243,"ELEMENT_SET_NO":999,"REV_AT_EPOCH":5485,"BSTAR":0.00034839454,"MEAN_MOTION_DOT":9.456e-5,"MEAN_MOTION_DDOT":0}]
